{"type": "FeatureCollection", "features": [ {"type": "Feature", "properties": {"norad_id": 33980, "name": "COSMOS 2251 DEB", "group": "cosmos-2251-debris", "lat": 73.63744022452971, "lon": 166.76571994528624, "alt_km": 699.1822848826096, "timestamp": "2025-12-10T05:46:14.219887+00:00", "meta": {"OBJECT_NAME": "COSMOS 2251 DEB", "OBJECT_ID": "1993-036FP", "EPOCH": "2025-12-09T16:52:58.778112", "MEAN_MOTION": 14.58620527, "ECCENTRICITY": 0.0028862, "INCLINATION": 74.0215, "RA_OF_ASC_NODE": 65.1826, "ARG_OF_PERICENTER": 210.8804, "MEAN_ANOMALY": 304.3631, "EPHEMERIS_TYPE": 0, "CLASSIFICATION_TYPE": "U", "NORAD_CAT_ID": 33980, "ELEMENT_SET_NO": 999, "REV_AT_EPOCH": 88750, "BSTAR": 0.0012385, "MEAN_MOTION_DOT": 5.775e-05, "MEAN_MOTION_DDOT": 0}, "tle": {"line1": "1 33980U 93036FP  25343.70345808  .00005775  00000+0  12385-2 0  9990", "line2": "2 33980  74.0215  65.1826 0028862 210.8804 304.3631 14.58620527887509"}}, "geometry": {"type": "Point", "coordinates": [166.76571994528624, 73.63744022452971]}}, {"type": "Feature", "properties": {"norad_id": 33982, "name": "COSMOS 2251 DEB", "group": "cosmos-2251-debris", "lat": -61.74876873242821, "lon": -27.408579065780227, "alt_km": 722.4954096018628, "timestamp": "2025-12-10T05:46:14.219897+00:00", "meta": {"OBJECT_NAME": "COSMOS 2251 DEB", "OBJECT_ID": "1993-036FR", "EPOCH": "2025-12-09T19:22:01.110720", "MEAN_MOTION": 14.60194894, "ECCENTRICITY": 0.0074992, "INCLINATION": 74.0709, "RA_OF_ASC_NODE": 5.5231, "ARG_OF_PERICENTER": 50.88, "MEAN_ANOMALY": 125.8169, "EPHEMERIS_TYPE": 0, "CLASSIFICATION_TYPE": "U", "NORAD_CAT_ID": 33982, "ELEMENT_SET_NO": 999, "REV_AT_EPOCH": 89116, "BSTAR": 0.00060843, "MEAN_MOTION_DOT": 3.021e-05, "MEAN_MOTION_DDOT": 0}, "tle": {"line1": "1 33982U 93036FR  25343.80695730  .00003021  00000+0  60843-3 0  9990", "line2": "2 33982  74.0709   5.5231 0074992  50.8800 125.8169 14.60194894891165"}}, "geometry": {"type": "Point", "coordinates": [-27.408579065780227, -61.74876873242821]}}, {"type": "Feature", "properties": {"norad_id": 33983, "name": "COSMOS 2251 DEB", "group": "cosmos-2251-debris", "lat": -45.37148562571375, "lon": 134.8982199103864, "alt_km": 721.7105974974411, "timestamp": "2025-12-10T05:46:14.219907+00:00", "meta": {"OBJECT_NAME": "COSMOS 2251 DEB", "OBJECT_ID": "1993-036FS", "EPOCH": "2025-12-09T11:55:26.624352", "MEAN_MOTION": 14.50649612, "ECCENTRICITY": 0.00213884, "INCLINATION": 74.0493, "RA_OF_ASC_NODE": 153.1364, "ARG_OF_PERICENTER": 256.4263, "MEAN_ANOMALY": 133.9147, "EPHEMERIS_TYPE": 0, "CLASSIFICATION_TYPE": "U", "NORAD_CAT_ID": 33983, "ELEMENT_SET_NO": 999, "REV_AT_EPOCH": 88582, "BSTAR": 0.00089636767, "MEAN_MOTION_DOT": 3.503e-05, "MEAN_MOTION_DDOT": 0}, "tle": {"line1": "1 33983U 93036FS  25343.49683593  .00003503  00000+0  89637-3 0  9997", "line2": "2 33983  74.0493 153.1364 0021388 256.4263 133.9147 14.50649612885825"}}, "geometry": {"type": "Point", "coordinates": [134.8982199103864, -45.37148562571375]}}, {"type": "Feature", "properties": {"norad_id": 33984, "name": "COSMOS 2251 DEB", "group": "cosmos-2251-debris", "lat": -72.48895276373264, "lon": -73.419735163448, "alt_km": 678.7185547739191, "timestamp": "2025-12-10T05:46:14.219917+00:00", "meta": {"OBJECT_NAME": "COSMOS 2251 DEB", "OBJECT_ID": "1993-036FT", "EPOCH": "2025-12-09T11:04:20.798976", "MEAN_MOTION": 14.66318161, "ECCENTRICITY": 0.00233413, "INCLINATION": 74.0096, "RA_OF_ASC_NODE": 353.4318, "ARG_OF_PERICENTER": 192.4125, "MEAN_ANOMALY": 293.6081, "EPHEMERIS_TYPE": 0, "CLASSIFICATION_TYPE": "U", "NORAD_CAT_ID": 33984, "ELEMENT_SET_NO": 999, "REV_AT_EPOCH": 89018, "BSTAR": 0.0012650084, "MEAN_MOTION_DOT": 6.985e-05, "MEAN_MOTION_DDOT": 0}, "tle": {"line1": "1 33984U 93036FT  25343.46135184  .00006985  00000+0  12650-2 0  9990", "line2": "2 33984  74.0096 353.4318 0023341 192.4125 293.6081 14.66318161890181"}}, "geometry": {"type": "Point", "coordinates": [-73.419735163448, -72.48895276373264]}}, {"type": "Feature", "properties": {"norad_id": 33986, "name": "COSMOS 2251 DEB", "group": "cosmos-2251-debris", "lat": 44.932983085822926, "lon": 110.72318794224758, "alt_km": 754.4935362789283, "timestamp": "2025-12-10T05:46:14.219928+00:00", "meta": {"OBJECT_NAME": "COSMOS 2251 DEB", "OBJECT_ID": "1993-036FV", "EPOCH": "2025-12-08T23:28:28.723008", "MEAN_MOTION": 14.43172512, "ECCENTRICITY": 0.0040264, "INCLINATION": 74.037, "RA_OF_ASC_NODE": 309.6592, "ARG_OF_PERICENTER": 23.2183, "MEAN_ANOMALY": 33.2913, "EPHEMERIS_TYPE": 0, "CLASSIFICATION_TYPE": "U", "NORAD_CAT_ID": 33986, "ELEMENT_SET_NO": 999, "REV_AT_EPOCH": 87974, "BSTAR": 0.0010835, "MEAN_MOTION_DOT": 3.652e-05, "MEAN_MOTION_DDOT": 0}, "tle": {"line1": "1 33986U 93036FV  25342.97811022  .00003652  00000+0  10835-2 0  9990", "line2": "2 33986  74.0370 309.6592 0040264  23.2183  33.2913 14.43172512879747"}}, "geometry": {"type": "Point", "coordinates": [110.72318794224758, 44.932983085822926]}}, {"type": "Feature", "properties": {"norad_id": 33990, "name": "COSMOS 2251 DEB", "group": "cosmos-2251-debris", "lat": -56.08822849870988, "lon": -95.38293865373888, "alt_km": 779.9430453042933, "timestamp": "2025-12-10T05:46:14.219938+00:00", "meta": {"OBJECT_NAME": "COSMOS 2251 DEB", "OBJECT_ID": "1993-036FZ", "EPOCH": "2025-12-09T15:00:17.544384", "MEAN_MOTION": 13.49978689, "ECCENTRICITY": 0.0407575, "INCLINATION": 73.929, "RA_OF_ASC_NODE": 290.9947, "ARG_OF_PERICENTER": 311.8639, "MEAN_ANOMALY": 240.3678, "EPHEMERIS_TYPE": 0, "CLASSIFICATION_TYPE": "U", "NORAD_CAT_ID": 33990, "ELEMENT_SET_NO": 999, "REV_AT_EPOCH": 82687, "BSTAR": 0.0024582, "MEAN_MOTION_DOT": 2.596e-05, "MEAN_MOTION_DDOT": 0}, "tle": {"line1": "1 33990U 93036FZ  25343.62520306  .00002596  00000+0  24582-2 0  9990", "line2": "2 33990  73.9290 290.9947 0407575 311.8639 240.3678 13.49978689826870"}}, "geometry": {"type": "Point", "coordinates": [-95.38293865373888, -56.08822849870988]}}, {"type": "Feature", "properties": {"norad_id": 33992, "name": "COSMOS 2251 DEB", "group": "cosmos-2251-debris", "lat": 37.008605203054714, "lon": 150.0865017118063, "alt_km": 642.2827198045643, "timestamp": "2025-12-10T05:46:14.219948+00:00", "meta": {"OBJECT_NAME": "COSMOS 2251 DEB", "OBJECT_ID": "1993-036GB", "EPOCH": "2025-12-09T18:28:40.852992", "MEAN_MOTION": 14.66175983, "ECCENTRICITY": 0.0051626, "INCLINATION": 74.0243, "RA_OF_ASC_NODE": 343.4644, "ARG_OF_PERICENTER": 102.2883, "MEAN_ANOMALY": 75.961, "EPHEMERIS_TYPE": 0, "CLASSIFICATION_TYPE": "U", "NORAD_CAT_ID": 33992, "ELEMENT_SET_NO": 999, "REV_AT_EPOCH": 89081, "BSTAR": 0.0011688, "MEAN_MOTION_DOT": 6.533e-05, "MEAN_MOTION_DDOT": 0}, "tle": {"line1": "1 33992U 93036GB  25343.76991728  .00006533  00000+0  11688-2 0  9995", "line2": "2 33992  74.0243 343.4644 0051626 102.2883  75.9610 14.66175983890814"}}, "geometry": {"type": "Point", "coordinates": [150.0865017118063, 37.008605203054714]}}, {"type": "Feature", "properties": {"norad_id": 33994, "name": "COSMOS 2251 DEB", "group": "cosmos-2251-debris", "lat": -72.29072792589282, "lon": 131.38639229614847, "alt_km": 751.0716970360036, "timestamp": "2025-12-10T05:46:14.219959+00:00", "meta": {"OBJECT_NAME": "COSMOS 2251 DEB", "OBJECT_ID": "1993-036GD", "EPOCH": "2025-12-09T20:12:21.741120", "MEAN_MOTION": 14.41212242, "ECCENTRICITY": 0.0023557, "INCLINATION": 74.042, "RA_OF_ASC_NODE": 195.7722, "ARG_OF_PERICENTER": 330.6024, "MEAN_ANOMALY": 40.5348, "EPHEMERIS_TYPE": 0, "CLASSIFICATION_TYPE": "U", "NORAD_CAT_ID": 33994, "ELEMENT_SET_NO": 999, "REV_AT_EPOCH": 88378, "BSTAR": 0.00014797, "MEAN_MOTION_DOT": 4.53e-06, "MEAN_MOTION_DDOT": 0}, "tle": {"line1": "1 33994U 93036GD  25343.84191830  .00000453  00000+0  14797-3 0  9992", "line2": "2 33994  74.0420 195.7722 0023557 330.6024  40.5348 14.41212242883781"}}, "geometry": {"type": "Point", "coordinates": [131.38639229614847, -72.29072792589282]}}, {"type": "Feature", "properties": {"norad_id": 33995, "name": "COSMOS 2251 DEB", "group": "cosmos-2251-debris", "lat": 48.57241209179707, "lon": 142.81916385802384, "alt_km": 769.1970872072598, "timestamp": "2025-12-10T05:46:14.219968+00:00", "meta": {"OBJECT_NAME": "COSMOS 2251 DEB", "OBJECT_ID": "1993-036GE", "EPOCH": "2025-12-09T11:07:25.075488", "MEAN_MOTION": 14.34744652, "ECCENTRICITY": 0.00603954, "INCLINATION": 74.0614, "RA_OF_ASC_NODE": 125.3453, "ARG_OF_PERICENTER": 140.6589, "MEAN_ANOMALY": 219.8974, "EPHEMERIS_TYPE": 0, "CLASSIFICATION_TYPE": "U", "NORAD_CAT_ID": 33995, "ELEMENT_SET_NO": 999, "REV_AT_EPOCH": 87472, "BSTAR": 0.0016759618, "MEAN_MOTION_DOT": 4.825e-05, "MEAN_MOTION_DDOT": 0}, "tle": {"line1": "1 33995U 93036GE  25343.46348467  .00004825  00000+0  16760-2 0  9999", "line2": "2 33995  74.0614 125.3453 0060395 140.6589 219.8974 14.34744652874720"}}, "geometry": {"type": "Point", "coordinates": [142.81916385802384, 48.57241209179707]}}, {"type": "Feature", "properties": {"norad_id": 33999, "name": "COSMOS 2251 DEB", "group": "cosmos-2251-debris", "lat": 44.322750437161055, "lon": 39.39860607321352, "alt_km": 583.7539486998903, "timestamp": "2025-12-10T05:46:14.219978+00:00", "meta": {"OBJECT_NAME": "COSMOS 2251 DEB", "OBJECT_ID": "1993-036GJ", "EPOCH": "2025-12-09T03:16:25.198464", "MEAN_MOTION": 14.83233851, "ECCENTRICITY": 0.00445867, "INCLINATION": 73.919, "RA_OF_ASC_NODE": 237.9626, "ARG_OF_PERICENTER": 134.6328, "MEAN_ANOMALY": 225.85, "EPHEMERIS_TYPE": 0, "CLASSIFICATION_TYPE": "U", "NORAD_CAT_ID": 33999, "ELEMENT_SET_NO": 999, "REV_AT_EPOCH": 89197, "BSTAR": 0.0016195783, "MEAN_MOTION_DOT": 0.00013462, "MEAN_MOTION_DDOT": 0}, "tle": {"line1": "1 33999U 93036GJ  25343.13640276  .00013462  00000+0  16196-2 0  9990", "line2": "2 33999  73.9190 237.9626 0044586 134.6328 225.8500 14.83233851891977"}}, "geometry": {"type": "Point", "coordinates": [39.39860607321352, 44.322750437161055]}}]}